NORAD_CAT_ID,OBJECT_NAME,OBJECT_TYPE,EPOCH,MEAN_MOTION,ECCENTRICITY,INCLINATION,RA_OF_ASC_NODE,ARG_OF_PERICENTER,MEAN_ANOMALY,BSTAR,MEAN_MOTION_DOT,MEAN_MOTION_DDOT,TLE_LINE0,TLE_LINE1,TLE_LINE2,SEMIMAJOR_AXIS,PERIOD,APOGEE,PERIGEE,DECAYED
54791.0,STARLINK-5425,PAYLOAD,2023-11-15 18:05:08,15.08838518,0.0001603,53.2174,222.1306,93.8369,266.2806,4.3995e-05,4.12e-06,0.0,0 STARLINK-5425,1 54791U 22175AK  23319.75357149  .00000412  00000-0  43995-4 0  9993,2 54791  53.2174 222.1306 0001603  93.8369 266.2806 15.08838518 50411,6917.885,95.438,540.859,538.641,0.0
54791.0,STARLINK-5425,PAYLOAD,2023-11-16 00:26:41,15.08841288,0.0001341,53.2175,220.9438,88.2604,271.8542,9.8123e-05,1.274e-05,0.0,0 STARLINK-5425,1 54791U 22175AK  23320.01853021  .00001274  00000-0  98123-4 0  9994,2 54791  53.2175 220.9438 0001341  88.2604 271.8542 15.08841288 52614,6917.876,95.437,540.669,538.814,0.0
54791.0,STARLINK-5425,PAYLOAD,2023-11-16 17:55:55,15.08835888,0.0001305,53.2169,217.6725,91.7413,268.3728,6.8006e-05,7.94e-06,0.0,0 STARLINK-5425,1 54791U 22175AK  23320.74717397  .00000794  00000-0  68006-4 0  9992,2 54791  53.2169 217.6725 0001305  91.7413 268.3728 15.08835888 52724,6917.893,95.438,540.661,538.855,0.0
54791.0,STARLINK-5425,PAYLOAD,2023-11-17 03:28:14,15.08839023,0.0001345,53.2175,215.8888,90.9603,269.1543,0.00011215,1.497e-05,0.0,0 STARLINK-5425,1 54791U 22175AK  23321.14461143  .00001497  00000-0  11215-3 0  9992,2 54791  53.2175 215.8888 0001345  90.9603 269.1543 15.08839023 50623,6917.883,95.438,540.679,538.818,0.0
54791.0,STARLINK-5425,PAYLOAD,2023-11-17 22:32:52,15.08837785,0.000138,53.2169,212.321,93.2647,266.8503,6.4056e-05,7.32e-06,0.0,0 STARLINK-5425,1 54791U 22175AK  23321.93949453  .00000732  00000-0  64056-4 0  9997,2 54791  53.2169 212.3210 0001380  93.2647 266.8503 15.08837785 52906,6917.887,95.438,540.707,538.797,0.0
54791.0,STARLINK-5425,PAYLOAD,2023-11-18 09:40:33,15.08848205,0.0001362,53.2174,210.2391,87.0612,273.0536,-3.82e-05,-8.96e-06,0.0,0 STARLINK-5425,1 54791U 22175AK  23322.40317048 -.00000896  00000-0 -38200-4 0  9994,2 54791  53.2174 210.2391 0001362  87.0612 273.0536 15.08848205 50815,6917.855,95.437,540.663,538.778,0.0
54791.0,STARLINK-5425,PAYLOAD,2023-11-19 01:34:25,15.08837607,0.0001482,53.2174,207.2657,82.2887,277.8273,4.5497e-05,4.36e-06,0.0,0 STARLINK-5425,1 54791U 22175AK  23323.06557637  .00000436  00000-0  45497-4 0  9991,2 54791  53.2174 207.2657 0001482  82.2887 277.8273 15.08837607 50915,6917.888,95.438,540.778,538.727,0.0
54791.0,STARLINK-5425,PAYLOAD,2023-11-19 09:31:21,15.08841263,0.0001487,53.2175,205.7791,84.5523,275.5639,8.1436e-05,1.008e-05,0.0,0 STARLINK-5425,1 54791U 22175AK  23323.39677377  .00001008  00000-0  81436-4 0  9990,2 54791  53.2175 205.7791 0001487  84.5523 275.5639 15.08841263 53125,6917.877,95.437,540.77,538.713,0.0
54791.0,STARLINK-5425,PAYLOAD,2023-11-19 22:14:26,15.08840976,0.0001399,53.217,203.4009,85.7635,274.3517,5.5443e-05,5.95e-06,0.0,0 STARLINK-5425,1 54791U 22175AK  23323.92669372  .00000595  00000-0  55443-4 0  9994,2 54791  53.2170 203.4009 0001399  85.7635 274.3517 15.08840976 53207,6917.877,95.437,540.71,538.775,0.0
54791.0,STARLINK-5425,PAYLOAD,2023-11-20 01:25:12,15.08846889,0.0001458,53.2175,202.8053,83.63,276.4858,9.7429e-05,1.263e-05,0.0,0 STARLINK-5425,1 54791U 22175AK  23324.05916884  .00001263  00000-0  97429-4 0  9995,2 54791  53.2175 202.8053 0001458  83.6300 276.4858 15.08846889 51068,6917.859,95.437,540.733,538.716,0.0
54791.0,STARLINK-5425,PAYLOAD,2023-11-20 09:22:08,15.08844931,0.0001482,53.2175,201.3183,86.8811,273.235,6.2379e-05,7.05e-06,0.0,0 STARLINK-5425,1 54791U 22175AK  23324.39037076  .00000705  00000-0  62379-4 0  9995,2 54791  53.2175 201.3183 0001482  86.8811 273.2350 15.08844931 53278,6917.865,95.437,540.756,538.705,0.0
54791.0,STARLINK-5425,PAYLOAD,2023-11-20 22:05:12,15.0884692,0.0001435,53.2165,198.9379,92.2942,267.8215,8.9348e-05,1.135e-05,0.0,0 STARLINK-5425,1 54791U 22175AK  23324.92028720  .00001135  00000-0  89348-4 0  9993,2 54791  53.2165 198.9379 0001435  92.2942 267.8215 15.08846920 53357,6917.859,95.437,540.717,538.732,0.0
54791.0,STARLINK-5425,PAYLOAD,2023-11-21 09:12:55,15.08835984,0.0001439,53.2166,196.858,89.1109,271.0048,-1.6106e-05,-5.44e-06,0.0,0 STARLINK-5425,1 54791U 22175AK  23325.38397733 -.00000544  00000-0 -16106-4 0  9994,2 54791  53.2166 196.8580 0001439  89.1109 271.0048 15.08835984 51260,6917.893,95.438,540.753,538.762,0.0
54791.0,STARLINK-5425,PAYLOAD,2023-11-21 20:20:37,15.08839301,0.0001351,53.2166,194.7759,90.7828,269.3319,5.1263e-05,5.28e-06,0.0,0 STARLINK-5425,1 54791U 22175AK  23325.84765482  .00000528  00000-0  51263-4 0  9998,2 54791  53.2166 194.7759 0001351  90.7828 269.3319 15.08839301 53499,6917.883,95.438,540.682,538.813,0.0
54791.0,STARLINK-5425,PAYLOAD,2023-11-22 01:06:46,15.08844489,0.0001409,53.2167,193.8828,96.5438,263.5715,4.9065e-05,4.93e-06,0.0,0 STARLINK-5425,1 54791U 22175AK  23326.04637123  .00000493  00000-0  49065-4 0  9999,2 54791  53.2167 193.8828 0001409  96.5438 263.5715 15.08844489 51365,6917.867,95.437,540.706,538.757,0.0
54791.0,STARLINK-5425,PAYLOAD,2023-11-22 20:11:23,15.08852825,0.000143,53.216,190.3141,99.767,260.3483,0.00022553,3.304e-05,0.0,0 STARLINK-5425,1 54791U 22175AK  23326.84124593  .00003304  00000-0  22553-3 0  9995,2 54791  53.2160 190.3141 0001430  99.7670 260.3483 15.08852825 53648,6917.841,95.437,540.695,538.717,0.0
54791.0,STARLINK-5425,PAYLOAD,2023-11-22 21:46:46,15.08856688,0.0001462,53.2162,190.017,93.7946,266.3213,0.00018573,2.67e-05,0.0,0 STARLINK-5425,1 54791U 22175AK  23326.90748432  .00002670  00000-0  18573-3 0  9998,2 54791  53.2162 190.0170 0001462  93.7946 266.3213 15.08856688 51493,6917.829,95.436,540.706,538.683,0.0
54791.0,STARLINK-5425,PAYLOAD,2023-11-23 20:02:11,15.08834365,0.0001417,53.2165,185.8538,107.001,253.1137,3.1813e-07,-2.83e-06,0.0,0 STARLINK-5425,1 54791U 22175AK  23327.83485634 -.00000283  00000-0  31813-6 0  9997,2 54791  53.2165 185.8538 0001417 107.0010 253.1137 15.08834365 51630,6917.898,95.438,540.743,538.782,0.0
54791.0,STARLINK-5425,PAYLOAD,2023-11-23 21:37:34,15.08828226,0.0001391,53.2163,185.5548,104.4812,255.6334,-0.00012711,-2.31e-05,0.0,0 STARLINK-5425,1 54791U 22175AK  23327.90109867 -.00002310  00000-0 -12711-3 0  9993,2 54791  53.2163 185.5548 0001391 104.4812 255.6334 15.08828226 53804,6917.916,95.438,540.744,538.819,0.0
54791.0,STARLINK-5425,PAYLOAD,2023-11-24 19:52:58,15.08840851,0.0001238,53.2151,181.3977,79.2091,280.904,0.00013682,1.89e-05,0.0,0 STARLINK-5425,1 54791U 22175AK  23328.82846064  .00001890  00000-0  13682-3 0  9990,2 54791  53.2151 181.3977 0001238  79.2091 280.9040 15.08840851 51787,6917.878,95.438,540.599,538.886,0.0
54791.0,STARLINK-5425,PAYLOAD,2023-11-24 23:03:45,15.088433,0.000131,53.2161,180.8043,89.3684,270.7459,0.00022434,3.285e-05,0.0,0 STARLINK-5425,1 54791U 22175AK  23328.96094026  .00003285  00000-0  22434-3 0  9993,2 54791  53.2161 180.8043 0001310  89.3684 270.7459 15.08843300 53962,6917.87,95.437,540.642,538.829,0.0
54791.0,STARLINK-5425,PAYLOAD,2023-11-25 21:19:09,15.08846888,0.0001348,53.2153,176.636,84.1568,275.9578,0.00034958,5.281e-05,0.0,0 STARLINK-5425,1 54791U 22175AK  23329.88830138  .00005281  00000-0  34958-3 0  9999,2 54791  53.2153 176.6360 0001348  84.1568 275.9578 15.08846888 54103,6917.859,95.437,540.657,538.792,0.0
54791.0,STARLINK-5425,PAYLOAD,2023-11-26 00:29:55,15.08846498,0.0001339,53.2152,176.0416,82.7192,277.3952,0.00028811,4.301e-05,0.0,0 STARLINK-5425,1 54791U 22175AK  23330.02078097  .00004301  00000-0  28811-3 0  9998,2 54791  53.2152 176.0416 0001339  82.7192 277.3952 15.08846498 51965,6917.861,95.437,540.652,538.799,0.0
54791.0,STARLINK-5425,PAYLOAD,2023-11-26 21:09:55,15.08847603,0.0001405,53.2157,172.1752,79.0473,281.0677,0.0001203,1.628e-05,0.0,0 STARLINK-5425,1 54791U 22175AK  23330.88189769  .00001628  00000-0  12030-3 0  9996,2 54791  53.2157 172.1752 0001405  79.0473 281.0677 15.08847603 54255,6917.857,95.437,540.694,538.75,0.0
54791.0,STARLINK-5425,PAYLOAD,2023-11-27 17:49:57,15.08838515,0.0001493,53.2155,168.3098,73.2865,286.8291,5.8812e-05,6.48e-06,0.0,0 STARLINK-5425,1 54791U 22175AK  23331.74302270  .00000648  00000-0  58812-4 0  9996,2 54791  53.2155 168.3098 0001493  73.2865 286.8291 15.08838515 52223,6917.885,95.438,540.783,538.717,0.0
54791.0,STARLINK-5425,PAYLOAD,2023-11-27 21:00:43,15.08839533,0.0001526,53.2156,167.7151,73.0499,287.066,6.705e-05,7.79e-06,0.0,0 STARLINK-5425,1 54791U 22175AK  23331.87550234  .00000779  00000-0  67050-4 0  9994,2 54791  53.2156 167.7151 0001526  73.0499 287.0660 15.08839533 54401,6917.882,95.438,540.802,538.691,0.0
54791.0,STARLINK-5425,PAYLOAD,2023-11-28 12:54:34,15.0883921,0.0001403,53.2155,164.7421,81.8041,278.311,5.1774e-05,5.36e-06,0.0,0 STARLINK-5425,1 54791U 22175AK  23332.53790281  .00000536  00000-0  51774-4 0  9993,2 54791  53.2155 164.7421 0001403  81.8041 278.3110 15.08839210 54507,6917.883,95.438,540.718,538.777,0.0
54791.0,STARLINK-5425,PAYLOAD,2023-11-28 19:16:07,15.08844868,0.0001389,53.2163,163.5533,82.3087,277.8063,4.5215e-05,4.32e-06,0.0,0 STARLINK-5425,1 54791U 22175AK  23332.80286095  .00000432  00000-0  45215-4 0  9994,2 54791  53.2163 163.5533 0001389  82.3087 277.8063 15.08844868 52386,6917.866,95.437,540.691,538.77,0.0
54791.0,STARLINK-5425,PAYLOAD,2023-11-30 12:36:08,15.08842591,0.0001481,53.2171,155.8221,90.9302,269.186,8.2295e-05,1.022e-05,0.0,0 STARLINK-5425,1 54791U 22175AK  23334.52510081  .00001022  00000-0  82295-4 0  9995,2 54791  53.2171 155.8221 0001481  90.9302 269.1860 15.08842591 52640,6917.872,95.437,540.762,538.713,0.0
54791.0,STARLINK-5425,PAYLOAD,2023-12-01 18:48:28,15.08841815,0.0001552,53.2181,150.174,106.5615,253.5548,5.7812e-05,6.32e-06,0.0,0 STARLINK-5425,1 54791U 22175AK  23335.78365961  .00000632  00000-0  57812-4 0  9992,2 54791  53.2181 150.1740 0001552 106.5615 253.5548 15.08841815 52834,6917.875,95.437,540.813,538.666,0.0
